{"type": "FeatureCollection", "features": [ {"type": "Feature", "properties": {"norad_id": 39620, "name": "COSMOS 2492 (754)", "group": "gnss", "lat": 33.86531664633184, "lon": -22.278569798127304, "alt_km": 19122.389987503797, "timestamp": "2025-12-25T07:00:34.288606+00:00", "meta": {"OBJECT_NAME": "COSMOS 2492 (754)", "OBJECT_ID": "2014-012A", "EPOCH": "2025-12-21T22:59:34.433088", "MEAN_MOTION": 2.13103396, "ECCENTRICITY": 0.00142426, "INCLINATION": 65.4026, "RA_OF_ASC_NODE": 319.9579, "ARG_OF_PERICENTER": 313.3292, "MEAN_ANOMALY": 46.5466, "EPHEMERIS_TYPE": 0, "CLASSIFICATION_TYPE": "U", "NORAD_CAT_ID": 39620, "ELEMENT_SET_NO": 999, "REV_AT_EPOCH": 9146, "BSTAR": 0, "MEAN_MOTION_DOT": -4.2e-07, "MEAN_MOTION_DDOT": 0}, "tle": {"line1": "1 39620U 14012A   25355.95803742 -.00000042  00000+0  00000+0 0  9991", "line2": "2 39620  65.4026 319.9579 0014242 313.3292  46.5466  2.13103396 91463"}}, "geometry": {"type": "Point", "coordinates": [-22.278569798127304, 33.86531664633184]}}, {"type": "Feature", "properties": {"norad_id": 39635, "name": "IRNSS-1B", "group": "gnss", "lat": 5.235826895896178, "lon": -107.13745036354354, "alt_km": 35860.95170495486, "timestamp": "2025-12-25T07:00:34.288618+00:00", "meta": {"OBJECT_NAME": "IRNSS-1B", "OBJECT_ID": "2014-017A", "EPOCH": "2025-12-24T18:29:47.559840", "MEAN_MOTION": 1.00272104, "ECCENTRICITY": 0.00185731, "INCLINATION": 29.2343, "RA_OF_ASC_NODE": 243.3872, "ARG_OF_PERICENTER": 174.7097, "MEAN_ANOMALY": 8.021, "EPHEMERIS_TYPE": 0, "CLASSIFICATION_TYPE": "U", "NORAD_CAT_ID": 39635, "ELEMENT_SET_NO": 999, "REV_AT_EPOCH": 4304, "BSTAR": 0, "MEAN_MOTION_DOT": 1.4e-06, "MEAN_MOTION_DDOT": 0}, "tle": {"line1": "1 39635U 14017A   25358.77068935  .00000140  00000+0  00000+0 0  9990", "line2": "2 39635  29.2343 243.3872 0018573 174.7097   8.0210  1.00272104 43048"}}, "geometry": {"type": "Point", "coordinates": [-107.13745036354354, 5.235826895896178]}}, {"type": "Feature", "properties": {"norad_id": 39727, "name": "LUCH 5V (SDCM/PRN 141)", "group": "gnss", "lat": -3.1932415886618237, "lon": -66.15254452743355, "alt_km": 35770.10714497974, "timestamp": "2025-12-25T07:00:34.288629+00:00", "meta": {"OBJECT_NAME": "LUCH 5V (SDCM/PRN 141)", "OBJECT_ID": "2014-023A", "EPOCH": "2025-12-24T20:35:21.611328", "MEAN_MOTION": 1.00274318, "ECCENTRICITY": 0.00037549, "INCLINATION": 4.6984, "RA_OF_ASC_NODE": 71.4359, "ARG_OF_PERICENTER": 214.4333, "MEAN_ANOMALY": 211.3363, "EPHEMERIS_TYPE": 0, "CLASSIFICATION_TYPE": "U", "NORAD_CAT_ID": 39727, "ELEMENT_SET_NO": 999, "REV_AT_EPOCH": 4261, "BSTAR": 0, "MEAN_MOTION_DOT": -2.5e-06, "MEAN_MOTION_DDOT": 0}, "tle": {"line1": "1 39727U 14023A   25358.85788902 -.00000250  00000+0  00000+0 0  9994", "line2": "2 39727   4.6984  71.4359 0003754 214.4333 211.3363  1.00274318 42617"}}, "geometry": {"type": "Point", "coordinates": [-66.15254452743355, -3.1932415886618237]}}, {"type": "Feature", "properties": {"norad_id": 39741, "name": "GPS BIIF-6  (PRN 06)", "group": "gnss", "lat": -46.316316739440076, "lon": -158.00144053359438, "alt_km": 20167.74731500184, "timestamp": "2025-12-25T07:00:34.288643+00:00", "meta": {"OBJECT_NAME": "GPS BIIF-6  (PRN 06)", "OBJECT_ID": "2014-026A", "EPOCH": "2025-12-23T23:04:28.197408", "MEAN_MOTION": 2.00560539, "ECCENTRICITY": 0.00394575, "INCLINATION": 56.5792, "RA_OF_ASC_NODE": 338.3401, "ARG_OF_PERICENTER": 319.314, "MEAN_ANOMALY": 40.3969, "EPHEMERIS_TYPE": 0, "CLASSIFICATION_TYPE": "U", "NORAD_CAT_ID": 39741, "ELEMENT_SET_NO": 999, "REV_AT_EPOCH": 8502, "BSTAR": 0, "MEAN_MOTION_DOT": -6e-07, "MEAN_MOTION_DDOT": 0}, "tle": {"line1": "1 39741U 14026A   25357.96143747 -.00000060  00000+0  00000+0 0  9995", "line2": "2 39741  56.5792 338.3401 0039457 319.3140  40.3969  2.00560539 85027"}}, "geometry": {"type": "Point", "coordinates": [-158.00144053359438, -46.316316739440076]}}, {"type": "Feature", "properties": {"norad_id": 40001, "name": "COSMOS 2500 (755)", "group": "gnss", "lat": -65.00625658819078, "lon": -140.37692423040824, "alt_km": 19122.618034637806, "timestamp": "2025-12-25T07:00:34.288655+00:00", "meta": {"OBJECT_NAME": "COSMOS 2500 (755)", "OBJECT_ID": "2014-032A", "EPOCH": "2025-12-21T04:35:55.026240", "MEAN_MOTION": 2.13106227, "ECCENTRICITY": 0.00077299, "INCLINATION": 65.3386, "RA_OF_ASC_NODE": 319.7453, "ARG_OF_PERICENTER": 219.3736, "MEAN_ANOMALY": 140.5635, "EPHEMERIS_TYPE": 0, "CLASSIFICATION_TYPE": "U", "NORAD_CAT_ID": 40001, "ELEMENT_SET_NO": 999, "REV_AT_EPOCH": 8966, "BSTAR": 0, "MEAN_MOTION_DOT": -4.7e-07, "MEAN_MOTION_DDOT": 0}, "tle": {"line1": "1 40001U 14032A   25355.19160910 -.00000047  00000+0  00000+0 0  9992", "line2": "2 40001  65.3386 319.7453 0007729 219.3736 140.5635  2.13106227 89663"}}, "geometry": {"type": "Point", "coordinates": [-140.37692423040824, -65.00625658819078]}}, {"type": "Feature", "properties": {"norad_id": 40105, "name": "GPS BIIF-7  (PRN 09)", "group": "gnss", "lat": 0.9542838288274209, "lon": -85.25836148720767, "alt_km": 20136.51823610582, "timestamp": "2025-12-25T07:00:34.288667+00:00", "meta": {"OBJECT_NAME": "GPS BIIF-7  (PRN 09)", "OBJECT_ID": "2014-045A", "EPOCH": "2025-12-23T13:11:32.096256", "MEAN_MOTION": 2.00573211, "ECCENTRICITY": 0.00324114, "INCLINATION": 55.2352, "RA_OF_ASC_NODE": 95.4677, "ARG_OF_PERICENTER": 120.1575, "MEAN_ANOMALY": 240.1743, "EPHEMERIS_TYPE": 0, "CLASSIFICATION_TYPE": "U", "NORAD_CAT_ID": 40105, "ELEMENT_SET_NO": 999, "REV_AT_EPOCH": 8255, "BSTAR": 0, "MEAN_MOTION_DOT": 8e-08, "MEAN_MOTION_DDOT": 0}, "tle": {"line1": "1 40105U 14045A   25357.54967704  .00000008  00000+0  00000+0 0  9994", "line2": "2 40105  55.2352  95.4677 0032411 120.1575 240.1743  2.00573211 82556"}}, "geometry": {"type": "Point", "coordinates": [-85.25836148720767, 0.9542838288274209]}}, {"type": "Feature", "properties": {"norad_id": 40128, "name": "GSAT0201 (GALILEO 5)", "group": "gnss", "lat": -11.83888579270586, "lon": -89.92038233686326, "alt_km": 26152.20435078428, "timestamp": "2025-12-25T07:00:34.288681+00:00", "meta": {"OBJECT_NAME": "GSAT0201 (GALILEO 5)", "OBJECT_ID": "2014-050A", "EPOCH": "2025-12-24T05:54:59.332320", "MEAN_MOTION": 1.85519669, "ECCENTRICITY": 0.16490328, "INCLINATION": 49.0634, "RA_OF_ASC_NODE": 280.5946, "ARG_OF_PERICENTER": 172.7103, "MEAN_ANOMALY": 190.0774, "EPHEMERIS_TYPE": 0, "CLASSIFICATION_TYPE": "U", "NORAD_CAT_ID": 40128, "ELEMENT_SET_NO": 999, "REV_AT_EPOCH": 7507, "BSTAR": 0, "MEAN_MOTION_DOT": -3.7e-07, "MEAN_MOTION_DDOT": 0}, "tle": {"line1": "1 40128U 14050A   25358.24652005 -.00000037  00000+0  00000+0 0  9991", "line2": "2 40128  49.0634 280.5946 1649032 172.7103 190.0774  1.85519669 75070"}}, "geometry": {"type": "Point", "coordinates": [-89.92038233686326, -11.83888579270586]}}, {"type": "Feature", "properties": {"norad_id": 40129, "name": "GSAT0202 (GALILEO 6)", "group": "gnss", "lat": 8.940330173654441, "lon": 91.79937685024981, "alt_km": 16989.74055322022, "timestamp": "2025-12-25T07:00:34.288692+00:00", "meta": {"OBJECT_NAME": "GSAT0202 (GALILEO 6)", "OBJECT_ID": "2014-050B", "EPOCH": "2025-12-23T23:07:46.341984", "MEAN_MOTION": 1.85520106, "ECCENTRICITY": 0.16495716, "INCLINATION": 49.08, "RA_OF_ASC_NODE": 279.6897, "ARG_OF_PERICENTER": 173.4584, "MEAN_ANOMALY": 189.053, "EPHEMERIS_TYPE": 0, "CLASSIFICATION_TYPE": "U", "NORAD_CAT_ID": 40129, "ELEMENT_SET_NO": 999, "REV_AT_EPOCH": 7723, "BSTAR": 0, "MEAN_MOTION_DOT": -3.5e-07, "MEAN_MOTION_DDOT": 0}, "tle": {"line1": "1 40129U 14050B   25357.96373081 -.00000035  00000+0  00000+0 0  9992", "line2": "2 40129  49.0800 279.6897 1649571 173.4584 189.0530  1.85520106 77235"}}, "geometry": {"type": "Point", "coordinates": [91.79937685024981, 8.940330173654441]}}, {"type": "Feature", "properties": {"norad_id": 40269, "name": "IRNSS-1C", "group": "gnss", "lat": -1.0539172564392396, "lon": -77.87000753175734, "alt_km": 35861.555003956564, "timestamp": "2025-12-25T07:00:34.288704+00:00", "meta": {"OBJECT_NAME": "IRNSS-1C", "OBJECT_ID": "2014-061A", "EPOCH": "2025-12-24T19:44:06.553248", "MEAN_MOTION": 1.00273296, "ECCENTRICITY": 0.00181007, "INCLINATION": 6.0727, "RA_OF_ASC_NODE": 92.3792, "ARG_OF_PERICENTER": 0.9094, "MEAN_ANOMALY": 19.3461, "EPHEMERIS_TYPE": 0, "CLASSIFICATION_TYPE": "U", "NORAD_CAT_ID": 40269, "ELEMENT_SET_NO": 999, "REV_AT_EPOCH": 4094, "BSTAR": 0, "MEAN_MOTION_DOT": -1.43e-06, "MEAN_MOTION_DDOT": 0}, "tle": {"line1": "1 40269U 14061A   25358.82229807 -.00000143  00000+0  00000+0 0  9991", "line2": "2 40269   6.0727  92.3792 0018100   0.9094  19.3461  1.00273296 40940"}}, "geometry": {"type": "Point", "coordinates": [-77.87000753175734, -1.0539172564392396]}}, {"type": "Feature", "properties": {"norad_id": 40294, "name": "GPS BIIF-8  (PRN 03)", "group": "gnss", "lat": -56.68836191666665, "lon": -58.90022766780653, "alt_km": 20342.472639310945, "timestamp": "2025-12-25T07:00:34.288716+00:00", "meta": {"OBJECT_NAME": "GPS BIIF-8  (PRN 03)", "OBJECT_ID": "2014-068A", "EPOCH": "2025-12-23T10:16:22.808064", "MEAN_MOTION": 2.00565491, "ECCENTRICITY": 0.00608386, "INCLINATION": 56.8656, "RA_OF_ASC_NODE": 37.7327, "ARG_OF_PERICENTER": 68.9718, "MEAN_ANOMALY": 291.747, "EPHEMERIS_TYPE": 0, "CLASSIFICATION_TYPE": "U", "NORAD_CAT_ID": 40294, "ELEMENT_SET_NO": 999, "REV_AT_EPOCH": 8168, "BSTAR": 0, "MEAN_MOTION_DOT": -4.8e-07, "MEAN_MOTION_DDOT": 0}, "tle": {"line1": "1 40294U 14068A   25357.42804176 -.00000048  00000+0  00000+0 0  9993", "line2": "2 40294  56.8656  37.7327 0060838  68.9718 291.7470  2.00565491 81685"}}, "geometry": {"type": "Point", "coordinates": [-58.90022766780653, -56.68836191666665]}}]}